{"type": "FeatureCollection", "features": [ {"type": "Feature", "properties": {"norad_id": 17070, "name": "POLAR BEAR", "group": "nnss", "lat": 30.191739680024064, "lon": 3.3219207705852862, "alt_km": 958.5227678935908, "timestamp": "2025-12-18T10:51:26.075034+00:00", "meta": {"OBJECT_NAME": "POLAR BEAR", "OBJECT_ID": "1986-088A", "EPOCH": "2025-12-17T13:26:31.356096", "MEAN_MOTION": 13.75251777, "ECCENTRICITY": 0.00412006, "INCLINATION": 89.6171, "RA_OF_ASC_NODE": 183.5808, "ARG_OF_PERICENTER": 105.3442, "MEAN_ANOMALY": 309.0213, "EPHEMERIS_TYPE": 0, "CLASSIFICATION_TYPE": "U", "NORAD_CAT_ID": 17070, "ELEMENT_SET_NO": 999, "REV_AT_EPOCH": 96045, "BSTAR": 0.0001101085, "MEAN_MOTION_DOT": 1.18e-06, "MEAN_MOTION_DDOT": 0}, "tle": {"line1": "1 17070U 86088A   25351.56008514  .00000118  00000+0  11011-3 0  9996", "line2": "2 17070  89.6171 183.5808 0041200 105.3442 309.0213 13.75251777960455"}}, "geometry": {"type": "Point", "coordinates": [3.3219207705852862, 30.191739680024064]}}, {"type": "Feature", "properties": {"norad_id": 18361, "name": "OSCAR 27", "group": "nnss", "lat": 37.33886137270765, "lon": -100.22839048275918, "alt_km": 1054.8005832275012, "timestamp": "2025-12-18T10:51:26.075045+00:00", "meta": {"OBJECT_NAME": "OSCAR 27", "OBJECT_ID": "1987-080A", "EPOCH": "2025-12-17T18:04:20.594496", "MEAN_MOTION": 13.44907706, "ECCENTRICITY": 0.01033075, "INCLINATION": 90.3741, "RA_OF_ASC_NODE": 79.4599, "ARG_OF_PERICENTER": 209.3206, "MEAN_ANOMALY": 150.2121, "EPHEMERIS_TYPE": 0, "CLASSIFICATION_TYPE": "U", "NORAD_CAT_ID": 18361, "ELEMENT_SET_NO": 999, "REV_AT_EPOCH": 87624, "BSTAR": 0.00014109203, "MEAN_MOTION_DOT": 9.3e-07, "MEAN_MOTION_DDOT": 0}, "tle": {"line1": "1 18361U 87080A   25351.75301614  .00000093  00000+0  14109-3 0  9994", "line2": "2 18361  90.3741  79.4599 0103307 209.3206 150.2121 13.44907706876244"}}, "geometry": {"type": "Point", "coordinates": [-100.22839048275918, 37.33886137270765]}}, {"type": "Feature", "properties": {"norad_id": 18362, "name": "OSCAR 29", "group": "nnss", "lat": 34.67735470261354, "lon": -99.79489665654049, "alt_km": 1083.4034851192018, "timestamp": "2025-12-18T10:51:26.075056+00:00", "meta": {"OBJECT_NAME": "OSCAR 29", "OBJECT_ID": "1987-080B", "EPOCH": "2025-12-17T18:39:30.047040", "MEAN_MOTION": 13.44449295, "ECCENTRICITY": 0.01042024, "INCLINATION": 90.3753, "RA_OF_ASC_NODE": 79.92, "ARG_OF_PERICENTER": 232.539, "MEAN_ANOMALY": 249.026, "EPHEMERIS_TYPE": 0, "CLASSIFICATION_TYPE": "U", "NORAD_CAT_ID": 18362, "ELEMENT_SET_NO": 999, "REV_AT_EPOCH": 87577, "BSTAR": 0.00012494406, "MEAN_MOTION_DOT": 8.3e-07, "MEAN_MOTION_DDOT": 0}, "tle": {"line1": "1 18362U 87080B   25351.77743110  .00000083  00000+0  12494-3 0  9992", "line2": "2 18362  90.3753  79.9200 0104202 232.5390 249.0260 13.44449295875771"}}, "geometry": {"type": "Point", "coordinates": [-99.79489665654049, 34.67735470261354]}}, {"type": "Feature", "properties": {"norad_id": 19070, "name": "OSCAR 23", "group": "nnss", "lat": -58.96694762101587, "lon": 17.103369487585688, "alt_km": 1265.7729414234082, "timestamp": "2025-12-18T10:51:26.075067+00:00", "meta": {"OBJECT_NAME": "OSCAR 23", "OBJECT_ID": "1988-033A", "EPOCH": "2025-12-17T15:51:37.554912", "MEAN_MOTION": 13.27787939, "ECCENTRICITY": 0.01899396, "INCLINATION": 90.3208, "RA_OF_ASC_NODE": 16.5452, "ARG_OF_PERICENTER": 166.2513, "MEAN_ANOMALY": 311.9864, "EPHEMERIS_TYPE": 0, "CLASSIFICATION_TYPE": "U", "NORAD_CAT_ID": 19070, "ELEMENT_SET_NO": 999, "REV_AT_EPOCH": 82318, "BSTAR": 0.00016409771, "MEAN_MOTION_DOT": 9.1e-07, "MEAN_MOTION_DDOT": 0}, "tle": {"line1": "1 19070U 88033A   25351.66085133  .00000091  00000+0  16410-3 0  9991", "line2": "2 19070  90.3208  16.5452 0189939 166.2513 311.9864 13.27787939823187"}}, "geometry": {"type": "Point", "coordinates": [17.103369487585688, -58.96694762101587]}}, {"type": "Feature", "properties": {"norad_id": 19071, "name": "OSCAR 32", "group": "nnss", "lat": 51.13226078230136, "lon": 16.303232692899105, "alt_km": 1171.2735529510928, "timestamp": "2025-12-18T10:51:26.075078+00:00", "meta": {"OBJECT_NAME": "OSCAR 32", "OBJECT_ID": "1988-033B", "EPOCH": "2025-12-17T15:17:38.406048", "MEAN_MOTION": 13.27954687, "ECCENTRICITY": 0.0188728, "INCLINATION": 90.3213, "RA_OF_ASC_NODE": 16.6767, "ARG_OF_PERICENTER": 153.2139, "MEAN_ANOMALY": 325.5255, "EPHEMERIS_TYPE": 0, "CLASSIFICATION_TYPE": "U", "NORAD_CAT_ID": 19071, "ELEMENT_SET_NO": 999, "REV_AT_EPOCH": 82330, "BSTAR": 0.00017613289, "MEAN_MOTION_DOT": 9.7e-07, "MEAN_MOTION_DDOT": 0}, "tle": {"line1": "1 19071U 88033B   25351.63725007  .00000097  00000+0  17613-3 0  9992", "line2": "2 19071  90.3213  16.6767 0188728 153.2139 325.5255 13.27954687823304"}}, "geometry": {"type": "Point", "coordinates": [16.303232692899105, 51.13226078230136]}}, {"type": "Feature", "properties": {"norad_id": 19223, "name": "NOVA 2", "group": "nnss", "lat": 32.20752095739578, "lon": -101.74261371824488, "alt_km": 1190.5929118858758, "timestamp": "2025-12-18T10:51:26.075089+00:00", "meta": {"OBJECT_NAME": "NOVA 2", "OBJECT_ID": "1988-052A", "EPOCH": "2025-12-17T18:21:27.622656", "MEAN_MOTION": 13.2293631, "ECCENTRICITY": 0.0030158, "INCLINATION": 89.9872, "RA_OF_ASC_NODE": 78.2663, "ARG_OF_PERICENTER": 3.1219, "MEAN_ANOMALY": 112.1018, "EPHEMERIS_TYPE": 0, "CLASSIFICATION_TYPE": "U", "NORAD_CAT_ID": 19223, "ELEMENT_SET_NO": 999, "REV_AT_EPOCH": 81014, "BSTAR": 0.00012786655, "MEAN_MOTION_DOT": 6.2e-07, "MEAN_MOTION_DDOT": 0}, "tle": {"line1": "1 19223U 88052A   25351.76490304  .00000062  00000+0  12787-3 0  9994", "line2": "2 19223  89.9872  78.2663 0030158   3.1219 112.1018 13.22936310810145"}}, "geometry": {"type": "Point", "coordinates": [-101.74261371824488, 32.20752095739578]}}, {"type": "Feature", "properties": {"norad_id": 19419, "name": "OSCAR 25", "group": "nnss", "lat": -88.724491237935, "lon": -161.27859512914068, "alt_km": 1052.0126112601583, "timestamp": "2025-12-18T10:51:26.075100+00:00", "meta": {"OBJECT_NAME": "OSCAR 25", "OBJECT_ID": "1988-074A", "EPOCH": "2025-12-17T20:05:06.175392", "MEAN_MOTION": 13.42624299, "ECCENTRICITY": 0.00946987, "INCLINATION": 90.0343, "RA_OF_ASC_NODE": 20.2609, "ARG_OF_PERICENTER": 231.0727, "MEAN_ANOMALY": 303.695, "EPHEMERIS_TYPE": 0, "CLASSIFICATION_TYPE": "U", "NORAD_CAT_ID": 19419, "ELEMENT_SET_NO": 999, "REV_AT_EPOCH": 82708, "BSTAR": 0.00016914912, "MEAN_MOTION_DOT": 1.07e-06, "MEAN_MOTION_DDOT": 0}, "tle": {"line1": "1 19419U 88074A   25351.83687703  .00000107  00000+0  16915-3 0  9991", "line2": "2 19419  90.0343  20.2609 0094698 231.0727 303.6950 13.42624299827085"}}, "geometry": {"type": "Point", "coordinates": [-161.27859512914068, -88.724491237935]}}, {"type": "Feature", "properties": {"norad_id": 19420, "name": "OSCAR 31", "group": "nnss", "lat": 29.91456826645899, "lon": -159.36548221673897, "alt_km": 1077.740371741107, "timestamp": "2025-12-18T10:51:26.075110+00:00", "meta": {"OBJECT_NAME": "OSCAR 31", "OBJECT_ID": "1988-074B", "EPOCH": "2025-12-17T20:39:40.913280", "MEAN_MOTION": 13.42585441, "ECCENTRICITY": 0.00930517, "INCLINATION": 90.0358, "RA_OF_ASC_NODE": 20.6118, "ARG_OF_PERICENTER": 225.14, "MEAN_ANOMALY": 308.6821, "EPHEMERIS_TYPE": 0, "CLASSIFICATION_TYPE": "U", "NORAD_CAT_ID": 19420, "ELEMENT_SET_NO": 999, "REV_AT_EPOCH": 82719, "BSTAR": 0.00015113076, "MEAN_MOTION_DOT": 9.6e-07, "MEAN_MOTION_DDOT": 0}, "tle": {"line1": "1 19420U 88074B   25351.86089020  .00000096  00000+0  15113-3 0  9990", "line2": "2 19420  90.0358  20.6118 0093051 225.1400 308.6821 13.42585441827195"}}, "geometry": {"type": "Point", "coordinates": [-159.36548221673897, 29.91456826645899]}}]}